ONEWEB-0156             
1 48052U 21025L   25330.48575483 -.00000077  00000+0 -24518-3 0  9994
2 48052  87.9000   0.4990 0001668  91.8655 268.2665 13.13468957226969
ONEWEB-0161             
1 48053U 21025M   25330.46036609  .00000354  00000+0  93347-3 0  9997
2 48053  87.8993   0.5204 0001665  90.0635 270.0685 13.13469125226898
ONEWEB-0158             
1 48054U 21025N   25330.49591065 -.00000226  00000+0 -65270-3 0  9997
2 48054  87.9002   0.4967 0002131  98.4550 261.6821 13.13469335227020
ONEWEB-0157             
1 48055U 21025P   25330.14041918  .00000027  00000+0  38039-4 0  9998
2 48055  87.8996   0.5736 0001632  81.5950 278.5364 13.13469506226915
ONEWEB-0162             
1 48056U 21025Q   25330.49747079 -.00000306  00000+0 -87200-3 0  9993
2 48056  87.9001   0.5045 0001603  95.9322 264.1990 13.13470891226934
ONEWEB-0155             
1 48057U 21025R   25330.50437755 -.00000245  00000+0 -70484-3 0  9991
2 48057  87.8998   0.5082 0001869  89.3840 270.7504 13.13471907227075
ONEWEB-0149             
1 48058U 21025S   25330.14550052  .00000186  00000+0  47499-3 0  9990
2 48058  87.8996   0.5733 0001576  98.2462 261.8846 13.13470490226830
ONEWEB-0148             
1 48059U 21025T   25330.48914118 -.00000158  00000+0 -46725-3 0  9997
2 48059  87.8992   0.5258 0001156  97.7681 262.3579 13.13469140227009
ONEWEB-0160             
1 48060U 21025U   25330.50607330 -.00000328  00000+0 -93422-3 0  9992
2 48060  87.8989   0.5195 0002378 110.4170 249.7215 13.13470208226956
ONEWEB-0163             
1 48061U 21025V   25330.49083690 -.00000179  00000+0 -52488-3 0  9999
2 48061  87.8999   0.5079 0001719  85.0629 275.0696 13.13469549227078
ONEWEB-0159             
1 48062U 21025W   25330.48237696  .00000024  00000+0  30237-4 0  9992
2 48062  87.9002   0.4931 0001593  89.3225 270.8087 13.13469377226996
ONEWEB-0164             
1 48063U 21025X   25330.46375411  .00000281  00000+0  73578-3 0  9998
2 48063  87.8998   0.5040 0001869  96.1575 263.9767 13.13469746226978
ONEWEB-0167             
1 48064U 21025Y   25330.49167351 -.00000207  00000+0 -60206-3 0  9998
2 48064  87.8991   0.5273 0002194  77.3717 282.7657 13.13467855226966
ONEWEB-0166             
1 48065U 21025Z   25330.36218297 -.00000080  00000+0 -25379-3 0  9992
2 48065  87.8997   0.5080 0001607  94.6421 265.4892 13.13470778227026
ONEWEB-0151             
1 48066U 21025AA  25330.36387617 -.00000014  00000+0 -74053-4 0  9997
2 48066  87.8999   0.5339 0001901  90.9042 269.2305 13.13471003226966
ONEWEB-0170             
1 48067U 21025AB  25330.37234693  .00000121  00000+0  29589-3 0  9994
2 48067  87.8995   0.5379 0002250  96.1993 263.9392 13.13470948226928
ONEWEB-0168             
1 48068U 21025AC  25330.50945920 -.00000239  00000+0 -68831-3 0  9997
2 48068  87.9001   0.4944 0001695  89.5729 270.5594 13.13470520226957
ONEWEB-0173             
1 48069U 21025AD  25330.50099354 -.00000232  00000+0 -67106-3 0  9996
2 48069  87.9002   0.5041 0001805  81.0430 279.0903 13.13470281227196
ONEWEB-0171             
1 48070U 21025AE  25330.46206605  .00000278  00000+0  72754-3 0  9995
2 48070  87.8982   0.5366 0001893  92.0132 268.1214 13.13468958227004
ONEWEB-0172             
1 48071U 21025AF  25330.36557148 -.00000053  00000+0 -17908-3 0  9999
2 48071  87.9001   0.5353 0001855  89.7374 270.3968 13.13470482227885
ONEWEB-0174             
1 48072U 21025AG  25330.49930000 -.00000320  00000+0 -91250-3 0  9995
2 48072  87.8992   0.5149 0001626  93.9467 266.1848 13.13469921227227
ONEWEB-0175             
1 48073U 21025AH  25330.37742282  .00000253  00000+0  65873-3 0  9991
2 48073  87.8999   0.5071 0002097  90.4746 269.6623 13.13470289226861
ONEWEB-0177             
1 48074U 21025AJ  25330.46544955  .00000247  00000+0  64087-3 0  9998
2 48074  87.9001   0.5088 0001615  90.2935 269.8379 13.13469209227061
ONEWEB-0178             
1 48075U 21025AK  25330.48420595 -.00000029  00000+0 -11512-3 0  9999
2 48075  87.8989   0.5481 0001914  86.3155 273.8193 13.13469405227118
ONEWEB-0108             
1 48076U 21025AL  25330.13873778  .00000037  00000+0  66350-4 0  9995
2 48076  87.8998   0.5636 0001732 102.0680 258.0644 13.13469251226998
ONEWEB-0169             
1 48077U 21025AM  25330.47560237  .00000134  00000+0  33283-3 0  9992
2 48077  87.8995   0.5183 0001738 102.1758 257.9566 13.13470896225690
ONEWEB-0176             
1 48210U 21031A   25330.47734044 -.00000020  00000+0 -88828-4 0  9999
2 48210  87.8985 330.0869 0001875  85.4554 274.6790 13.14503283221687
ONEWEB-0184             
1 48211U 21031B   25330.37426595  .00000302  00000+0  77911-3 0  9999
2 48211  87.8997 330.0862 0002569  78.6877 281.4541 13.14503136221640
ONEWEB-0179             
1 48212U 21031C   25330.49713421 -.00000176  00000+0 -50831-3 0  9993
2 48212  87.8984 330.0702 0001716  88.0456 272.0870 13.14501161221705
ONEWEB-0180             
1 48213U 21031D   25330.37742966 -.00000185  00000+0 -53476-3 0  9995
2 48213  87.8998 330.0915 0001776  78.5986 281.5343 13.14507199221577
ONEWEB-0218             
1 48214U 21031E   25330.47574931 -.00000011  00000+0 -62978-4 0  9998
2 48214  87.8996 330.0725 0002463  71.6589 288.4808 13.14501798221742
ONEWEB-0209             
1 48215U 21031F   25330.46464558  .00000244  00000+0  62363-3 0  9994
2 48215  87.8986 330.1130 0001624  83.4998 276.6316 13.14502134221744
ONEWEB-0198             
1 48216U 21031G   25330.44892939  .00000275  00000+0  70728-3 0  9999
2 48216  87.8984 330.1131 0001870  75.1493 284.9843 13.14503742221850
ONEWEB-0189             
1 48217U 21031H   25330.46147792  .00000221  00000+0  56159-3 0  9995
2 48217  87.8988 330.0843 0001866  77.3961 282.7378 13.14503268221596
ONEWEB-0196             
1 48218U 21031J   25330.43927510  .00000200  00000+0  50438-3 0  9998
2 48218  87.8981 330.1033 0001780  84.3008 275.8325 13.14502847221594
ONEWEB-0183             
1 48219U 21031K   25330.49001378 -.00000214  00000+0 -61200-3 0  9996
2 48219  87.8974 330.0987 0001583  92.1262 268.0049 13.14502241221690
ONEWEB-0185             
1 48220U 21031L   25330.44007524  .00000212  00000+0  53712-3 0  9997
2 48220  87.8995 330.0813 0001383  84.0263 276.1024 13.14503961221617
ONEWEB-0187             
1 48221U 21031M   25330.49622691 -.00000262  00000+0 -74046-3 0  9991
2 48221  87.8982 330.1142 0001624  80.8541 279.2772 13.14503469221630
ONEWEB-0192             
1 48222U 21031N   25330.46623076  .00000139  00000+0  34059-3 0  9998
2 48222  87.8979 330.1109 0001839  86.5334 273.6006 13.14501774221546
ONEWEB-0219             
1 48223U 21031P   25330.44561553  .00000248  00000+0  63332-3 0  9995
2 48223  87.8984 330.0915 0001556  83.7677 276.3630 13.14503030221744
ONEWEB-0202             
1 48224U 21031Q   25330.50270749 -.00000177  00000+0 -51207-3 0  9998
2 48224  87.8982 330.0927 0002197  70.5597 289.5770 13.14503754221736
ONEWEB-0204             
1 48225U 21031R   25330.46069308  .00000266  00000+0  68404-3 0  9995
2 48225  87.8987 330.0904 0001574  97.3820 262.7488 13.14502943221627
ONEWEB-0205             
1 48226U 21031S   25330.43610079  .00000123  00000+0  29730-3 0  9991
2 48226  87.8984 330.0882 0001670  85.9932 274.1389 13.14502932221630
ONEWEB-0206             
1 48227U 21031T   25330.48526140 -.00000143  00000+0 -41899-3 0  9996
2 48227  87.8997 330.0673 0002031  93.4454 266.6908 13.14502745221598
ONEWEB-0182             
1 48228U 21031U   25330.48050279 -.00000063  00000+0 -20401-3 0  9999
2 48228  87.8974 330.1002 0001581  94.0221 266.1089 13.14502287221809
ONEWEB-0186             
1 48229U 21031V   25330.49160569 -.00000171  00000+0 -49584-3 0  9998
2 48229  87.8989 330.0724 0001694  85.8450 274.2873 13.14502947221751
ONEWEB-0181             
1 48230U 21031W   25330.46940036  .00000136  00000+0  33338-3 0  9991
2 48230  87.8975 330.1337 0001786  83.1478 276.9854 13.14502127221604
ONEWEB-0188             
1 48231U 21031X   25330.50746419 -.00000074  00000+0 -23297-3 0  9992
2 48231  87.8978 330.1221 0001724  89.8834 270.2493 13.14502852221512
ONEWEB-0220             
1 48232U 21031Y   25330.47099505  .00000111  00000+0  26607-3 0  9994
2 48232  87.8992 330.0758 0001541  84.9601 275.1705 13.14502873221779
ONEWEB-0165             
1 48233U 21031Z   25330.49954541 -.00000177  00000+0 -51241-3 0  9993
2 48233  87.8979 330.0986 0001943  79.6783 280.4566 13.14502458221735
ONEWEB-0199             
1 48234U 21031AA  25330.48367681 -.00000113  00000+0 -33848-3 0  9999
2 48234  87.8986 330.0751 0001875  93.3066 266.8278 13.14503361221636
ONEWEB-0203             
1 48235U 21031AB  25330.47415698  .00000045  00000+0  85744-4 0  9996
2 48235  87.8983 330.0782 0002045  86.9405 273.1959 13.14501750221641
ONEWEB-0197             
1 48236U 21031AC  25330.44865375  .00000358  00000+0  93241-3 0  9992
2 48236  87.8984 330.0813 0001484  95.6120 264.5179 13.14503794221553
ONEWEB-0194             
1 48237U 21031AD  25330.50428604 -.00000156  00000+0 -45635-3 0  9992
2 48237  87.8984 330.0872 0002038  93.2070 266.9293 13.14501495221732
ONEWEB-0193             
1 48238U 21031AE  25330.36791649  .00000260  00000+0  66667-3 0  9991
2 48238  87.8981 330.1097 0002158  98.2045 261.9330 13.14504120221667
ONEWEB-0191             
1 48239U 21031AF  25330.37900280  .00001465  00000+0  39148-2 0  9997
2 48239  87.8994 330.0960 0001752  90.3789 269.7541 13.14514167221524
ONEWEB-0195             
1 48240U 21031AG  25330.50824059 -.00000044  00000+0 -15220-3 0  9993
2 48240  87.8998 330.0661 0001852  76.5549 283.5787 13.14505526221524
ONEWEB-0201             
1 48241U 21031AH  25330.49649453 -.00000206  00000+0 -58892-3 0  9997
2 48241  87.8977 330.1107 0001501  85.6138 274.5163 13.14501403221757
ONEWEB-0207             
1 48242U 21031AJ  25330.47653184  .00000719  00000+0  19061-2 0  9993
2 48242  87.8996 330.0743 0001570  88.2288 271.9021 13.14496694221664
